{"type": "FeatureCollection", "features": [{"type": "Feature", "properties": {"norad_id": 2807, "name": "OPS 7218 (TRANSIT 16)", "group": "nnss", "lat": 86.67123800448756, "lon": 168.1206351643039, "alt_km": 1045.6455849755494, "timestamp": "2025-12-20T14:38:02.238386+00:00", "meta": {"OBJECT_NAME": "OPS 7218 (TRANSIT 16)", "OBJECT_ID": "1967-048A", "EPOCH": "2025-12-20T02:04:17.194368", "MEAN_MOTION": 13.50723755, "ECCENTRICITY": 0.00221438, "INCLINATION": 89.673, "RA_OF_ASC_NODE": 353.7725, "ARG_OF_PERICENTER": 94.5084, "MEAN_ANOMALY": 335.0389, "EPHEMERIS_TYPE": 0, "CLASSIFICATION_TYPE": "U", "NORAD_CAT_ID": 2807, "ELEMENT_SET_NO": 999, "REV_AT_EPOCH": 88375, "BSTAR": 0.00014543978, "MEAN_MOTION_DOT": 1.04e-06, "MEAN_MOTION_DDOT": 0}, "tle": {"line1": "1 02807U 67048A   25354.08631012  .00000104  00000+0  14544-3 0  9997", "line2": "2 02807  89.6730 353.7725 0022143  94.5084 335.0389 13.50723755883756"}}, "geometry": {"type": "Point", "coordinates": [168.1206351643039, 86.67123800448756]}}, {"type": "Feature", "properties": {"norad_id": 2965, "name": "OPS 4947 (TRANSIT 17)", "group": "nnss", "lat": -55.37098677325761, "lon": -155.07609150318874, "alt_km": 1034.9793443624822, "timestamp": "2025-12-20T14:38:02.238410+00:00", "meta": {"OBJECT_NAME": "OPS 4947 (TRANSIT 17)", "OBJECT_ID": "1967-092A", "EPOCH": "2025-12-20T03:07:42.632256", "MEAN_MOTION": 13.53455414, "ECCENTRICITY": 0.00466956, "INCLINATION": 89.2488, "RA_OF_ASC_NODE": 23.8719, "ARG_OF_PERICENTER": 212.481, "MEAN_ANOMALY": 208.1838, "EPHEMERIS_TYPE": 0, "CLASSIFICATION_TYPE": "U", "NORAD_CAT_ID": 2965, "ELEMENT_SET_NO": 999, "REV_AT_EPOCH": 87197, "BSTAR": 0.00019201817, "MEAN_MOTION_DOT": 1.41e-06, "MEAN_MOTION_DDOT": 0}, "tle": {"line1": "1 02965U 67092A   25354.13035454  .00000141  00000+0  19202-3 0  9992", "line2": "2 02965  89.2488  23.8719 0046695 212.4810 208.1838 13.53455414871978"}}, "geometry": {"type": "Point", "coordinates": [-155.07609150318874, -55.37098677325761]}}, {"type": "Feature", "properties": {"norad_id": 3133, "name": "OPS 7034 (TRANSIT 18)", "group": "nnss", "lat": -29.32874983960468, "lon": -86.32277158371593, "alt_km": 1127.776238067454, "timestamp": "2025-12-20T14:38:02.238424+00:00", "meta": {"OBJECT_NAME": "OPS 7034 (TRANSIT 18)", "OBJECT_ID": "1968-012A", "EPOCH": "2025-12-20T04:54:44.983584", "MEAN_MOTION": 13.5156731, "ECCENTRICITY": 0.00745727, "INCLINATION": 90.0284, "RA_OF_ASC_NODE": 273.6601, "ARG_OF_PERICENTER": 147.6112, "MEAN_ANOMALY": 13.523, "EPHEMERIS_TYPE": 0, "CLASSIFICATION_TYPE": "U", "NORAD_CAT_ID": 3133, "ELEMENT_SET_NO": 999, "REV_AT_EPOCH": 57019, "BSTAR": 0.00014918933, "MEAN_MOTION_DOT": 1.09e-06, "MEAN_MOTION_DDOT": 0}, "tle": {"line1": "1 03133U 68012A   25354.20468731  .00000109  00000+0  14919-3 0  9993", "line2": "2 03133  90.0284 273.6601 0074572 147.6112  13.5230 13.51567310570195"}}, "geometry": {"type": "Point", "coordinates": [-86.32277158371593, -29.32874983960468]}}, {"type": "Feature", "properties": {"norad_id": 4507, "name": "NNSS 19 (TRANSIT 19)", "group": "nnss", "lat": -64.0178389523218, "lon": -125.45026840192435, "alt_km": 960.0503263158325, "timestamp": "2025-12-20T14:38:02.238436+00:00", "meta": {"OBJECT_NAME": "NNSS 19 (TRANSIT 19)", "OBJECT_ID": "1970-067A", "EPOCH": "2025-12-20T02:30:18.139104", "MEAN_MOTION": 13.51316498, "ECCENTRICITY": 0.01702497, "INCLINATION": 90.0051, "RA_OF_ASC_NODE": 234.539, "ARG_OF_PERICENTER": 271.8283, "MEAN_ANOMALY": 86.3378, "EPHEMERIS_TYPE": 0, "CLASSIFICATION_TYPE": "U", "NORAD_CAT_ID": 4507, "ELEMENT_SET_NO": 999, "REV_AT_EPOCH": 72321, "BSTAR": 0.00013229031, "MEAN_MOTION_DOT": 1.02e-06, "MEAN_MOTION_DDOT": 0}, "tle": {"line1": "1 04507U 70067A   25354.10437661  .00000102  00000+0  13229-3 0  9995", "line2": "2 04507  90.0051 234.5390 0170249 271.8283  86.3378 13.51316498723214"}}, "geometry": {"type": "Point", "coordinates": [-125.45026840192435, -64.0178389523218]}}, {"type": "Feature", "properties": {"norad_id": 6909, "name": "NNSS 20 (TRANSIT 20)", "group": "nnss", "lat": -37.74969972002586, "lon": 75.04759956635195, "alt_km": 1110.817746272136, "timestamp": "2025-12-20T14:38:02.238448+00:00", "meta": {"OBJECT_NAME": "NNSS 20 (TRANSIT 20)", "OBJECT_ID": "1973-081A", "EPOCH": "2025-12-19T23:34:38.311104", "MEAN_MOTION": 13.71437816, "ECCENTRICITY": 0.0156435, "INCLINATION": 89.8563, "RA_OF_ASC_NODE": 254.9457, "ARG_OF_PERICENTER": 56.8677, "MEAN_ANOMALY": 304.7387, "EPHEMERIS_TYPE": 0, "CLASSIFICATION_TYPE": "U", "NORAD_CAT_ID": 6909, "ELEMENT_SET_NO": 999, "REV_AT_EPOCH": 80460, "BSTAR": 0.00023602, "MEAN_MOTION_DOT": 2.43e-06, "MEAN_MOTION_DDOT": 0}, "tle": {"line1": "1 06909U 73081A   25353.98238786  .00000243  00000+0  23602-3 0  9996", "line2": "2 06909  89.8563 254.9457 0156435  56.8677 304.7387 13.71437816804605"}}, "geometry": {"type": "Point", "coordinates": [75.04759956635195, -37.74969972002586]}}, {"type": "Feature", "properties": {"norad_id": 10457, "name": "TRANSAT", "group": "nnss", "lat": -53.44902722766231, "lon": -101.20643789985543, "alt_km": 1075.3895687054946, "timestamp": "2025-12-20T14:38:02.238459+00:00", "meta": {"OBJECT_NAME": "TRANSAT", "OBJECT_ID": "1977-106A", "EPOCH": "2025-12-20T00:05:57.765984", "MEAN_MOTION": 13.48944613, "ECCENTRICITY": 0.0026083, "INCLINATION": 89.648, "RA_OF_ASC_NODE": 78.3399, "ARG_OF_PERICENTER": 168.68, "MEAN_ANOMALY": 5.219, "EPHEMERIS_TYPE": 0, "CLASSIFICATION_TYPE": "U", "NORAD_CAT_ID": 10457, "ELEMENT_SET_NO": 999, "REV_AT_EPOCH": 36841, "BSTAR": 0.00011135, "MEAN_MOTION_DOT": 8e-07, "MEAN_MOTION_DDOT": 0}, "tle": {"line1": "1 10457U 77106A   25354.00414081  .00000080  00000+0  11135-3 0  9996", "line2": "2 10457  89.6480  78.3399 0026083 168.6800   5.2190 13.48944613368413"}}, "geometry": {"type": "Point", "coordinates": [-101.20643789985543, -53.44902722766231]}}, {"type": "Feature", "properties": {"norad_id": 12458, "name": "NOVA 1", "group": "nnss", "lat": 51.33282436540421, "lon": -88.91001439096033, "alt_km": 1158.9025113994458, "timestamp": "2025-12-20T14:38:02.238470+00:00", "meta": {"OBJECT_NAME": "NOVA 1", "OBJECT_ID": "1981-044A", "EPOCH": "2025-12-20T05:02:58.430400", "MEAN_MOTION": 13.23279054, "ECCENTRICITY": 0.00158608, "INCLINATION": 89.8528, "RA_OF_ASC_NODE": 91.2797, "ARG_OF_PERICENTER": 85.6477, "MEAN_ANOMALY": 301.5055, "EPHEMERIS_TYPE": 0, "CLASSIFICATION_TYPE": "U", "NORAD_CAT_ID": 12458, "ELEMENT_SET_NO": 999, "REV_AT_EPOCH": 15285, "BSTAR": 8.0389399e-05, "MEAN_MOTION_DOT": 4.3e-07, "MEAN_MOTION_DDOT": 0}, "tle": {"line1": "1 12458U 81044A   25354.21039850  .00000043  00000+0  80389-4 0  9992", "line2": "2 12458  89.8528  91.2797 0015860  85.6477 301.5055 13.23279054152850"}}, "geometry": {"type": "Point", "coordinates": [-88.91001439096033, 51.33282436540421]}}, {"type": "Feature", "properties": {"norad_id": 15362, "name": "NOVA 3", "group": "nnss", "lat": -5.327774718867799, "lon": 80.6388061110108, "alt_km": 1160.7451509037237, "timestamp": "2025-12-20T14:38:02.238481+00:00", "meta": {"OBJECT_NAME": "NOVA 3", "OBJECT_ID": "1984-110A", "EPOCH": "2025-12-20T05:50:42.318240", "MEAN_MOTION": 13.23045429, "ECCENTRICITY": 0.00300028, "INCLINATION": 90.1222, "RA_OF_ASC_NODE": 80.6231, "ARG_OF_PERICENTER": 310.4079, "MEAN_ANOMALY": 100.9335, "EPHEMERIS_TYPE": 0, "CLASSIFICATION_TYPE": "U", "NORAD_CAT_ID": 15362, "ELEMENT_SET_NO": 999, "REV_AT_EPOCH": 98798, "BSTAR": 0.00010221395, "MEAN_MOTION_DOT": 5.1e-07, "MEAN_MOTION_DDOT": 0}, "tle": {"line1": "1 15362U 84110A   25354.24354535  .00000051  00000+0  10221-3 0  9995", "line2": "2 15362  90.1222  80.6231 0030002 310.4079 100.9335 13.23045429987989"}}, "geometry": {"type": "Point", "coordinates": [80.6388061110108, -5.327774718867799]}}, {"type": "Feature", "properties": {"norad_id": 15935, "name": "OSCAR 30", "group": "nnss", "lat": 84.81207287518924, "lon": 98.15166375169714, "alt_km": 999.2233014829408, "timestamp": "2025-12-20T14:38:02.238491+00:00", "meta": {"OBJECT_NAME": "OSCAR 30", "OBJECT_ID": "1985-066A", "EPOCH": "2025-12-20T02:29:33.841824", "MEAN_MOTION": 13.36079328, "ECCENTRICITY": 0.01691999, "INCLINATION": 90.1655, "RA_OF_ASC_NODE": 99.9676, "ARG_OF_PERICENTER": 63.3487, "MEAN_ANOMALY": 108.9124, "EPHEMERIS_TYPE": 0, "CLASSIFICATION_TYPE": "U", "NORAD_CAT_ID": 15935, "ELEMENT_SET_NO": 999, "REV_AT_EPOCH": 96551, "BSTAR": 0.00010067291, "MEAN_MOTION_DOT": 6.6e-07, "MEAN_MOTION_DDOT": 0}, "tle": {"line1": "1 15935U 85066A   25354.10386391  .00000066  00000+0  10067-3 0  9996", "line2": "2 15935  90.1655  99.9676 0169199  63.3487 108.9124 13.36079328965516"}}, "geometry": {"type": "Point", "coordinates": [98.15166375169714, 84.81207287518924]}}, {"type": "Feature", "properties": {"norad_id": 15936, "name": "OSCAR 24", "group": "nnss", "lat": 22.562233920804577, "lon": -87.48100832477158, "alt_km": 1119.6208481450594, "timestamp": "2025-12-20T14:38:02.238502+00:00", "meta": {"OBJECT_NAME": "OSCAR 24", "OBJECT_ID": "1985-066B", "EPOCH": "2025-12-20T04:55:15.563136", "MEAN_MOTION": 13.35936745, "ECCENTRICITY": 0.01703236, "INCLINATION": 90.1791, "RA_OF_ASC_NODE": 92.4374, "ARG_OF_PERICENTER": 69.504, "MEAN_ANOMALY": 300.6372, "EPHEMERIS_TYPE": 0, "CLASSIFICATION_TYPE": "U", "NORAD_CAT_ID": 15936, "ELEMENT_SET_NO": 999, "REV_AT_EPOCH": 96743, "BSTAR": 9.8160446e-05, "MEAN_MOTION_DOT": 6.4e-07, "MEAN_MOTION_DDOT": 0}, "tle": {"line1": "1 15936U 85066B   25354.20504124  .00000064  00000+0  98160-4 0  9993", "line2": "2 15936  90.1791  92.4374 0170323  69.5040 300.6372 13.35936745967438"}}, "geometry": {"type": "Point", "coordinates": [-87.48100832477158, 22.562233920804577]}}]}